IRIDIUM 7               
1 24793U 97020B   24201.57705472  .00000891  00000+0  30438-3 0  9997
2 24793  86.3981 316.2670 0002324  98.1634 261.9826 14.35299273424176
IRIDIUM 5               
1 24795U 97020D   24201.82847066  .00005126  00000+0  48467-3 0  9990
2 24795  86.3901 236.1601 0118580 245.7680 113.1119 14.88220451435958
IRIDIUM 4               
1 24796U 97020E   24201.35400757  .00001109  00000+0  37348-3 0  9994
2 24796  86.3975 313.4577 0002096  97.4491 262.6945 14.36227474424687
IRIDIUM 914             
1 24836U 97030A   24201.57633096  .00001073  00000+0  33391-3 0  9992
2 24836  86.3962 322.9509 0001230 149.2284 210.8988 14.40095489559240
IRIDIUM 16              
1 24841U 97030F   24201.87806344  .00001064  00000+0  34579-3 0  9998
2 24841  86.4060 344.8817 0004225  84.4378 275.7302 14.37983863419492
IRIDIUM 911             
1 24842U 97030G   24201.47135082  .00001458  00000+0  39805-3 0  9993
2 24842  86.4484 344.1502 0016085 122.6499 237.6258 14.46646450426968
IRIDIUM 17              
1 24870U 97034B   24201.58928654  .00000981  00000+0  32399-3 0  9996
2 24870  86.3964  14.5796 0003123  61.1226 299.0285 14.37072898415800
IRIDIUM 920             
1 24871U 97034C   24201.51445113  .00001046  00000+0  32048-3 0  9998
2 24871  86.3994 354.6203 0013695  98.3621 261.9132 14.40791915418669
